0 FENGYUN 1C DEB
1 31609U 99025BZP 13281.06065273  .00001916  00000-0  14416-2 0  6338
2 31609 099.0900 230.9344 0113060 328.5438 030.9201 13.92603465325102
0 FENGYUN 1C DEB
1 31609U 99025BZP 13285.29955246  .00002023  00000-0  15205-2 0  6343
2 31609 099.0890 235.0930 0112420 316.9188 042.3931 13.92623303325693
0 FENGYUN 1C DEB
1 31609U 99025BZP 13288.31703085  .00002037  00000-0  15321-2 0  6356
2 31609 099.0902 238.0568 0111526 308.8415 050.2916 13.92636107326111
0 FENGYUN 1C DEB
1 31609U 99025BZP 13290.32867497  .00002059  00000-0  15488-2 0  6367
2 31609 099.0911 240.0325 0110857 303.3799 055.6886 13.92645227326394
0 FENGYUN 1C DEB
1 31609U 99025BZP 13292.34030900  .00002062  00000-0  15505-2 0  6377
2 31609 099.0906 242.0058 0110794 297.9016 061.0978 13.92653788326678
